GLOBALSTAR M065         
1 31571U 07020A   23316.92167420 -.00000047  00000+0  31604-3 0  9990
2 31571  51.9883 198.4145 0010837  97.4617 276.4741 12.61957796759890
GLOBALSTAR M069         
1 31573U 07020C   23316.80942647 -.00000053  00000+0  28242-3 0  9992
2 31573  51.9930 154.8640 0001323  89.2491 284.1557 12.62260792761001
GLOBALSTAR M072         
1 31574U 07020D   23316.60278392 -.00000078  00000+0  14427-3 0  9997
2 31574  52.0085 251.2379 0000987  53.0965 118.2344 12.62268696759409
GLOBALSTAR M071         
1 31576U 07020F   23316.83626542 -.00000059  00000+0  25115-3 0  9993
2 31576  52.0046 159.7800 0000988  76.6284 297.0606 12.62272855422197
GLOBALSTAR M063 [+]     
1 26081U 00008A   23316.94008650 -.00000038  00000+0  65673-3 0  9993
2 26081  51.9940 204.9703 0003697 287.6866  86.0506 11.86147766 88480
GLOBALSTAR M062 [-]     
1 26082U 00008B   23316.93054569 -.00000052  00000+0  32970-3 0  9993
2 26082  51.9873   7.9574 0006511 309.6913 222.7951 12.43420129424184
GLOBALSTAR M060 [-]     
1 26083U 00008C   23317.15265532 -.00000013  00000+0  77567-3 0  9991
2 26083  52.0018 244.9723 0004239  29.1988  80.1237 12.17618740 81639
GLOBALSTAR M064 [-]     
1 26084U 00008D   23317.16938831 -.00000086  00000+0 -36113-4 0  9996
2 26084  52.0043 310.0583 0001780  23.4410 336.6503 11.88511465 98009
